{
  "type": "FeatureCollection",
  "name": "Sentinel1_Sample",
  "crs": { "type": "name", "properties": { "name": "urn:ogc:def:crs:OGC:1.3:CRS84" } },
  "features": [
    {
      "type": "Feature",
      "properties": {
        "id": "sar-obs-01",
        "sensor": "Sentinel-1A IW GRDH",
        "acquisition_date": "2024-09-12T00:45:00Z",
        "polarization": "VV+VH",
        "threshold_db": -16.5,
        "detected_area_sqkm": 38.4,
        "processing_level": "GRD_CHANGE_DETECTION"
      },
      "geometry": {
        "type": "Polygon",
        "coordinates": [[
          [78.480, 30.378],
          [78.495, 30.360],
          [78.520, 30.275],
          [78.555, 30.218],
          [78.590, 30.145],
          [78.540, 30.120],
          [78.475, 30.112],
          [78.340, 30.130],
          [78.290, 30.100],
          [78.260, 30.082],
          [78.240, 30.038],
          [78.200, 29.980],
          [78.155, 29.940],
          [78.130, 29.895],
          [78.145, 29.895],
          [78.175, 29.948],
          [78.220, 29.990],
          [78.258, 30.045],
          [78.275, 30.090],
          [78.305, 30.108],
          [78.355, 30.138],
          [78.490, 30.124],
          [78.560, 30.128],
          [78.608, 30.150],
          [78.572, 30.225],
          [78.538, 30.282],
          [78.510, 30.365],
          [78.480, 30.378]
        ]]
      }
    }
  ]
}
