{
  "type": "FeatureCollection",
  "name": "Tehri_Dams",
  "crs": { "type": "name", "properties": { "name": "urn:ogc:def:crs:OGC:1.3:CRS84" } },
  "features": [
    {
      "type": "Feature",
      "properties": {
        "id": "dam-tehri-01",
        "name": "Tehri Dam",
        "river": "Bhagirathi River",
        "type": "Embankment / Earth & Rock-fill",
        "crest_elevation_m": 840.0,
        "foundation_elevation_m": 579.5,
        "height_m": 260.5,
        "length_m": 575.0,
        "crest_width_m": 20.0,
        "reservoir_capacity_mcm": 3540.0,
        "active_storage_mcm": 2615.0,
        "max_water_level_m": 830.0,
        "normal_water_level_m": 820.0,
        "min_drawdown_level_m": 740.0,
        "spillway_capacity_cumecs": 15540.0,
        "installed_power_mw": 2400.0,
        "district": "Tehri Garhwal",
        "state": "Uttarakhand"
      },
      "geometry": {
        "type": "Point",
        "coordinates": [78.4803, 30.3781]
      }
    },
    {
      "type": "Feature",
      "properties": {
        "id": "dam-koteshwar-02",
        "name": "Koteshwar Dam",
        "river": "Bhagirathi River",
        "type": "Concrete Gravity",
        "crest_elevation_m": 618.5,
        "height_m": 97.5,
        "reservoir_capacity_mcm": 88.9,
        "normal_water_level_m": 612.5,
        "installed_power_mw": 400.0,
        "district": "Tehri Garhwal",
        "state": "Uttarakhand"
      },
      "geometry": {
        "type": "Point",
        "coordinates": [78.528, 30.278]
      }
    },
    {
      "type": "Feature",
      "properties": {
        "id": "res-tehri-lake",
        "name": "Tehri Reservoir (Tehri Lake)",
        "type": "Reservoir",
        "area_sqkm": 52.0,
        "max_volume_mcm": 3540.0
      },
      "geometry": {
        "type": "Polygon",
        "coordinates": [[
          [78.4803, 30.3781],
          [78.4700, 30.3950],
          [78.4520, 30.4180],
          [78.4350, 30.4420],
          [78.4100, 30.4650],
          [78.4300, 30.4780],
          [78.4600, 30.4500],
          [78.4880, 30.4200],
          [78.5050, 30.3980],
          [78.4803, 30.3781]
        ]]
      }
    }
  ]
}
