{
  "type": "FeatureCollection",
  "name": "Tehri_Villages",
  "crs": { "type": "name", "properties": { "name": "urn:ogc:def:crs:OGC:1.3:CRS84" } },
  "features": [
    {
      "type": "Feature",
      "properties": {
        "id": "v-01",
        "name": "New Tehri Suburb / Dam Foot",
        "district": "Tehri Garhwal",
        "population": 1420,
        "elevation_m": 595.0,
        "distance_downstream_km": 2.5,
        "criticality": "HIGH",
        "hospital_count": 1,
        "school_count": 2
      },
      "geometry": { "type": "Point", "coordinates": [78.4890, 30.3650] }
    },
    {
      "type": "Feature",
      "properties": {
        "id": "v-02",
        "name": "Koteshwar Settlement",
        "district": "Tehri Garhwal",
        "population": 2180,
        "elevation_m": 530.0,
        "distance_downstream_km": 14.8,
        "criticality": "HIGH",
        "hospital_count": 1,
        "school_count": 3
      },
      "geometry": { "type": "Point", "coordinates": [78.5310, 30.2720] }
    },
    {
      "type": "Feature",
      "properties": {
        "id": "v-03",
        "name": "Kirtinagar",
        "district": "Tehri Garhwal",
        "population": 4850,
        "elevation_m": 510.0,
        "distance_downstream_km": 28.3,
        "criticality": "MEDIUM",
        "hospital_count": 2,
        "school_count": 5
      },
      "geometry": { "type": "Point", "coordinates": [78.5680, 30.2150] }
    },
    {
      "type": "Feature",
      "properties": {
        "id": "v-04",
        "name": "Devprayag Confluence Town",
        "district": "Tehri Garhwal",
        "population": 7240,
        "elevation_m": 475.0,
        "distance_downstream_km": 42.1,
        "criticality": "CRITICAL",
        "hospital_count": 2,
        "school_count": 6
      },
      "geometry": { "type": "Point", "coordinates": [78.5980, 30.1470] }
    },
    {
      "type": "Feature",
      "properties": {
        "id": "v-05",
        "name": "Kaudiyala Riverside Settlement",
        "district": "Pauri Garhwal",
        "population": 1890,
        "elevation_m": 420.0,
        "distance_downstream_km": 58.7,
        "criticality": "HIGH",
        "hospital_count": 0,
        "school_count": 2
      },
      "geometry": { "type": "Point", "coordinates": [78.4820, 30.1150] }
    },
    {
      "type": "Feature",
      "properties": {
        "id": "v-06",
        "name": "Shivpuri Village & Camp Corridor",
        "district": "Tehri Garhwal",
        "population": 3650,
        "elevation_m": 370.0,
        "distance_downstream_km": 72.4,
        "criticality": "CRITICAL",
        "hospital_count": 1,
        "school_count": 3
      },
      "geometry": { "type": "Point", "coordinates": [78.3450, 30.1340] }
    },
    {
      "type": "Feature",
      "properties": {
        "id": "v-07",
        "name": "Tepovan & Muni Ki Reti",
        "district": "Tehri Garhwal",
        "population": 12800,
        "elevation_m": 352.0,
        "distance_downstream_km": 81.9,
        "criticality": "CRITICAL",
        "hospital_count": 3,
        "school_count": 8
      },
      "geometry": { "type": "Point", "coordinates": [78.2980, 30.1020] }
    },
    {
      "type": "Feature",
      "properties": {
        "id": "v-08",
        "name": "Rishikesh Municipal Area",
        "district": "Dehradun",
        "population": 102000,
        "elevation_m": 340.0,
        "distance_downstream_km": 85.6,
        "criticality": "CRITICAL",
        "hospital_count": 8,
        "school_count": 24
      },
      "geometry": { "type": "Point", "coordinates": [78.2676, 30.0869] }
    },
    {
      "type": "Feature",
      "properties": {
        "id": "v-09",
        "name": "Raiwala Junction Settlement",
        "district": "Dehradun",
        "population": 8450,
        "elevation_m": 320.0,
        "distance_downstream_km": 92.3,
        "criticality": "HIGH",
        "hospital_count": 1,
        "school_count": 4
      },
      "geometry": { "type": "Point", "coordinates": [78.2120, 29.9850] }
    },
    {
      "type": "Feature",
      "properties": {
        "id": "v-10",
        "name": "Haridwar Urban & Ghat Corridor",
        "district": "Haridwar",
        "population": 228000,
        "elevation_m": 294.0,
        "distance_downstream_km": 102.5,
        "criticality": "CRITICAL",
        "hospital_count": 14,
        "school_count": 45
      },
      "geometry": { "type": "Point", "coordinates": [78.1642, 29.9457] }
    }
  ]
}
