{
  "type": "FeatureCollection",
  "name": "Tehri_River",
  "crs": { "type": "name", "properties": { "name": "urn:ogc:def:crs:OGC:1.3:CRS84" } },
  "features": [
    {
      "type": "Feature",
      "properties": {
        "id": "river-bhagirathi-ganges-main",
        "name": "Bhagirathi - Ganges River Mainstem",
        "reach": "Tehri Dam to Haridwar",
        "length_km": 105.4,
        "manning_n_default": 0.038,
        "average_slope": 0.0032
      },
      "geometry": {
        "type": "LineString",
        "coordinates": [
          [78.4803, 30.3781],
          [78.5020, 30.3540],
          [78.5280, 30.2780],
          [78.5610, 30.2210],
          [78.5980, 30.1470],
          [78.5520, 30.1210],
          [78.4820, 30.1150],
          [78.4120, 30.1080],
          [78.3450, 30.1340],
          [78.2980, 30.1020],
          [78.2750, 30.0870],
          [78.2676, 30.0869],
          [78.2480, 30.0410],
          [78.2120, 29.9850],
          [78.1642, 29.9457],
          [78.1320, 29.9010]
        ]
      }
    }
  ]
}
